IRIDIUM 26              
1 24903U 97043A   25299.84538997  .00000679  00000+0  22124-3 0  9996
2 24903  86.3962  55.2636 0002123  87.8686 272.2755 14.37267351475658
IRIDIUM 22              
1 24907U 97043E   25299.88447994  .00000611  00000+0  20334-3 0  9997
2 24907  86.3962  58.9008 0001968  91.2313 268.9109 14.36067259475678
DUMMY MASS 1            
1 24925U 97048A   25299.90647577  .00000764  00000+0  81970-4 0  9997
2 24925  86.3321  74.3750 0008332  52.1102 308.0875 14.87115783524704
DUMMY MASS 2            
1 24926U 97048B   25299.89060771  .00000760  00000+0  81973-4 0  9990
2 24926  86.3319  76.0154 0009355  60.4137 299.8018 14.86866561524471
IRIDIUM 29              
1 24944U 97051A   25299.92963794  .00000739  00000+0  24482-3 0  9992
2 24944  86.3913  88.5996 0001962  95.7327 264.4094 14.36593236472184
IRIDIUM 33              
1 24946U 97051C   25299.91770520  .00000572  00000+0  19404-3 0  9999
2 24946  86.3831  87.8768 0008395  22.5072 337.6491 14.34984513471639
IRIDIUM 28              
1 24948U 97051E   25299.88959118  .00000696  00000+0  22613-3 0  9992
2 24948  86.3922  86.0550 0002228  76.7027 283.4419 14.37498385472765
IRIDIUM 36              
1 24967U 97056C   25299.90185220  .00000617  00000+0  19880-3 0  9991
2 24967  86.3926 117.6844 0001948  82.1846 277.9573 14.37718533471145
